{"type": "FeatureCollection", "features": [ {"type": "Feature", "properties": {"norad_id": 36261, "name": "FENGYUN 1C DEB", "group": "fengyun-1c-debris", "lat": -5.1781919724566325, "lon": -124.87003165002267, "alt_km": 1084.551266061806, "timestamp": "2025-12-08T10:52:03.235961+00:00", "meta": {"OBJECT_NAME": "FENGYUN 1C DEB", "OBJECT_ID": "1999-025DWN", "EPOCH": "2025-12-02T22:49:55.041600", "MEAN_MOTION": 13.45467056, "ECCENTRICITY": 0.03552723, "INCLINATION": 101.3643, "RA_OF_ASC_NODE": 227.8571, "ARG_OF_PERICENTER": 97.9346, "MEAN_ANOMALY": 266.225, "EPHEMERIS_TYPE": 0, "CLASSIFICATION_TYPE": "U", "NORAD_CAT_ID": 36261, "ELEMENT_SET_NO": 999, "REV_AT_EPOCH": 84301, "BSTAR": 0.00066301052, "MEAN_MOTION_DOT": 5.22e-06, "MEAN_MOTION_DDOT": 0}, "tle": {"line1": "1 36261U 99025DWN 25336.95133150  .00000522  00000+0  66301-3 0  9996", "line2": "2 36261 101.3643 227.8571 0355272  97.9346 266.2250 13.45467056843012"}}, "geometry": {"type": "Point", "coordinates": [-124.87003165002267, -5.1781919724566325]}}, {"type": "Feature", "properties": {"norad_id": 36262, "name": "FENGYUN 1C DEB", "group": "fengyun-1c-debris", "lat": -24.10493364150235, "lon": 38.79897522643185, "alt_km": 799.6313832675523, "timestamp": "2025-12-08T10:52:03.235971+00:00", "meta": {"OBJECT_NAME": "FENGYUN 1C DEB", "OBJECT_ID": "1999-025DWP", "EPOCH": "2025-12-06T22:35:18.006432", "MEAN_MOTION": 14.27791742, "ECCENTRICITY": 0.00600349, "INCLINATION": 98.9621, "RA_OF_ASC_NODE": 221.2978, "ARG_OF_PERICENTER": 292.446, "MEAN_ANOMALY": 67.0368, "EPHEMERIS_TYPE": 0, "CLASSIFICATION_TYPE": "U", "NORAD_CAT_ID": 36262, "ELEMENT_SET_NO": 999, "REV_AT_EPOCH": 89414, "BSTAR": 0.00051562369, "MEAN_MOTION_DOT": 1.251e-05, "MEAN_MOTION_DDOT": 0}, "tle": {"line1": "1 36262U 99025DWP 25340.94118063  .00001251  00000+0  51562-3 0  9990", "line2": "2 36262  98.9621 221.2978 0060034 292.4460  67.0368 14.27791742894147"}}, "geometry": {"type": "Point", "coordinates": [38.79897522643185, -24.10493364150235]}}, {"type": "Feature", "properties": {"norad_id": 36263, "name": "FENGYUN 1C DEB", "group": "fengyun-1c-debris", "lat": 75.43532664446592, "lon": 80.82983545459669, "alt_km": 759.181138691355, "timestamp": "2025-12-08T10:52:03.235981+00:00", "meta": {"OBJECT_NAME": "FENGYUN 1C DEB", "OBJECT_ID": "1999-025DWQ", "EPOCH": "2025-12-05T22:35:35.438496", "MEAN_MOTION": 14.45500291, "ECCENTRICITY": 0.00368573, "INCLINATION": 98.9995, "RA_OF_ASC_NODE": 220.5826, "ARG_OF_PERICENTER": 285.5558, "MEAN_ANOMALY": 74.1564, "EPHEMERIS_TYPE": 0, "CLASSIFICATION_TYPE": "U", "NORAD_CAT_ID": 36263, "ELEMENT_SET_NO": 999, "REV_AT_EPOCH": 87887, "BSTAR": 0.0032840515, "MEAN_MOTION_DOT": 0.00011644, "MEAN_MOTION_DDOT": 0}, "tle": {"line1": "1 36263U 99025DWQ 25339.94138239  .00011644  00000+0  32841-2 0  9991", "line2": "2 36263  98.9995 220.5826 0036857 285.5558  74.1564 14.45500291878879"}}, "geometry": {"type": "Point", "coordinates": [80.82983545459669, 75.43532664446592]}}, {"type": "Feature", "properties": {"norad_id": 36267, "name": "FENGYUN 1C DEB", "group": "fengyun-1c-debris", "lat": 17.584590233386553, "lon": 112.79160590752451, "alt_km": 817.4396045871908, "timestamp": "2025-12-08T10:52:03.235991+00:00", "meta": {"OBJECT_NAME": "FENGYUN 1C DEB", "OBJECT_ID": "1999-025DWU", "EPOCH": "2025-12-06T02:08:43.155168", "MEAN_MOTION": 14.09059757, "ECCENTRICITY": 0.01266796, "INCLINATION": 98.5595, "RA_OF_ASC_NODE": 287.81, "ARG_OF_PERICENTER": 229.7401, "MEAN_ANOMALY": 191.5113, "EPHEMERIS_TYPE": 0, "CLASSIFICATION_TYPE": "U", "NORAD_CAT_ID": 36267, "ELEMENT_SET_NO": 999, "REV_AT_EPOCH": 86436, "BSTAR": 0.0020214884, "MEAN_MOTION_DOT": 3.734e-05, "MEAN_MOTION_DDOT": 0}, "tle": {"line1": "1 36267U 99025DWU 25340.08938837  .00003734  00000+0  20215-2 0  9997", "line2": "2 36267  98.5595 287.8100 0126679 229.7401 191.5113 14.09059757864364"}}, "geometry": {"type": "Point", "coordinates": [112.79160590752451, 17.584590233386553]}}, {"type": "Feature", "properties": {"norad_id": 36269, "name": "FENGYUN 1C DEB", "group": "fengyun-1c-debris", "lat": 1.4828557310433685, "lon": -76.00570446748857, "alt_km": 742.0046484056102, "timestamp": "2025-12-08T10:52:03.236001+00:00", "meta": {"OBJECT_NAME": "FENGYUN 1C DEB", "OBJECT_ID": "1999-025DWW", "EPOCH": "2025-12-06T01:38:46.265856", "MEAN_MOTION": 14.2698404, "ECCENTRICITY": 0.02334469, "INCLINATION": 99.1075, "RA_OF_ASC_NODE": 281.7488, "ARG_OF_PERICENTER": 299.1205, "MEAN_ANOMALY": 58.6785, "EPHEMERIS_TYPE": 0, "CLASSIFICATION_TYPE": "U", "NORAD_CAT_ID": 36269, "ELEMENT_SET_NO": 999, "REV_AT_EPOCH": 87621, "BSTAR": 0.0015827025, "MEAN_MOTION_DOT": 5.087e-05, "MEAN_MOTION_DDOT": 0}, "tle": {"line1": "1 36269U 99025DWW 25340.06859104  .00005087  00000+0  15827-2 0  9992", "line2": "2 36269  99.1075 281.7488 0233446 299.1205  58.6785 14.26984040876218"}}, "geometry": {"type": "Point", "coordinates": [-76.00570446748857, 1.4828557310433685]}}, {"type": "Feature", "properties": {"norad_id": 36272, "name": "FENGYUN 1C DEB", "group": "fengyun-1c-debris", "lat": -53.0064008633312, "lon": 26.278403664755174, "alt_km": 756.9832868459935, "timestamp": "2025-12-08T10:52:03.236011+00:00", "meta": {"OBJECT_NAME": "FENGYUN 1C DEB", "OBJECT_ID": "1999-025DWZ", "EPOCH": "2025-12-03T09:27:01.103328", "MEAN_MOTION": 14.17212531, "ECCENTRICITY": 0.01683371, "INCLINATION": 99.1372, "RA_OF_ASC_NODE": 213.4136, "ARG_OF_PERICENTER": 294.7142, "MEAN_ANOMALY": 63.659, "EPHEMERIS_TYPE": 0, "CLASSIFICATION_TYPE": "U", "NORAD_CAT_ID": 36272, "ELEMENT_SET_NO": 999, "REV_AT_EPOCH": 63484, "BSTAR": 0.00071361155, "MEAN_MOTION_DOT": 1.606e-05, "MEAN_MOTION_DDOT": 0}, "tle": {"line1": "1 36272U 99025DWZ 25337.39376277  .00001606  00000+0  71361-3 0  9992", "line2": "2 36272  99.1372 213.4136 0168337 294.7142  63.6590 14.17212531634841"}}, "geometry": {"type": "Point", "coordinates": [26.278403664755174, -53.0064008633312]}}, {"type": "Feature", "properties": {"norad_id": 36273, "name": "FENGYUN 1C DEB", "group": "fengyun-1c-debris", "lat": -48.031194185579835, "lon": 20.713109448640438, "alt_km": 890.2261713741582, "timestamp": "2025-12-08T10:52:03.236021+00:00", "meta": {"OBJECT_NAME": "FENGYUN 1C DEB", "OBJECT_ID": "1999-025DXA", "EPOCH": "2025-12-03T21:17:46.785120", "MEAN_MOTION": 14.16550178, "ECCENTRICITY": 0.009769, "INCLINATION": 99.6049, "RA_OF_ASC_NODE": 206.6416, "ARG_OF_PERICENTER": 13.2177, "MEAN_ANOMALY": 347.152, "EPHEMERIS_TYPE": 0, "CLASSIFICATION_TYPE": "U", "NORAD_CAT_ID": 36273, "ELEMENT_SET_NO": 999, "REV_AT_EPOCH": 66108, "BSTAR": 0.00050173, "MEAN_MOTION_DOT": 9.97e-06, "MEAN_MOTION_DDOT": 0}, "tle": {"line1": "1 36273U 99025DXA 25337.88734705  .00000997  00000+0  50173-3 0  9991", "line2": "2 36273  99.6049 206.6416 0097690  13.2177 347.1520 14.16550178661088"}}, "geometry": {"type": "Point", "coordinates": [20.713109448640438, -48.031194185579835]}}, {"type": "Feature", "properties": {"norad_id": 36274, "name": "FENGYUN 1C DEB", "group": "fengyun-1c-debris", "lat": 41.646122352533474, "lon": -115.32081498105737, "alt_km": 821.4864071773582, "timestamp": "2025-12-08T10:52:03.236031+00:00", "meta": {"OBJECT_NAME": "FENGYUN 1C DEB", "OBJECT_ID": "1999-025DXB", "EPOCH": "2025-12-06T23:38:05.684928", "MEAN_MOTION": 14.23354105, "ECCENTRICITY": 0.00619764, "INCLINATION": 99.1397, "RA_OF_ASC_NODE": 54.9244, "ARG_OF_PERICENTER": 246.4059, "MEAN_ANOMALY": 293.7298, "EPHEMERIS_TYPE": 0, "CLASSIFICATION_TYPE": "U", "NORAD_CAT_ID": 36274, "ELEMENT_SET_NO": 999, "REV_AT_EPOCH": 62903, "BSTAR": 0.004546576, "MEAN_MOTION_DOT": 0.00010482, "MEAN_MOTION_DDOT": 0}, "tle": {"line1": "1 36274U 99025DXB 25340.98478802  .00010482  00000+0  45466-2 0  9998", "line2": "2 36274  99.1397  54.9244 0061976 246.4059 293.7298 14.23354105629037"}}, "geometry": {"type": "Point", "coordinates": [-115.32081498105737, 41.646122352533474]}}, {"type": "Feature", "properties": {"norad_id": 36278, "name": "FENGYUN 1C DEB", "group": "fengyun-1c-debris", "lat": 76.162699352477, "lon": 121.35537787541335, "alt_km": 867.7935620678873, "timestamp": "2025-12-08T10:52:03.236042+00:00", "meta": {"OBJECT_NAME": "FENGYUN 1C DEB", "OBJECT_ID": "1999-025DXF", "EPOCH": "2025-12-04T01:21:08.443872", "MEAN_MOTION": 14.17353569, "ECCENTRICITY": 0.00613363, "INCLINATION": 99.1236, "RA_OF_ASC_NODE": 256.1206, "ARG_OF_PERICENTER": 315.5831, "MEAN_ANOMALY": 44.0433, "EPHEMERIS_TYPE": 0, "CLASSIFICATION_TYPE": "U", "NORAD_CAT_ID": 36278, "ELEMENT_SET_NO": 999, "REV_AT_EPOCH": 93353, "BSTAR": 0.0008477729, "MEAN_MOTION_DOT": 1.7e-05, "MEAN_MOTION_DDOT": 0}, "tle": {"line1": "1 36278U 99025DXF 25338.05634773  .00001700  00000+0  84777-3 0  9990", "line2": "2 36278  99.1236 256.1206 0061336 315.5831  44.0433 14.17353569933530"}}, "geometry": {"type": "Point", "coordinates": [121.35537787541335, 76.162699352477]}}, {"type": "Feature", "properties": {"norad_id": 36279, "name": "FENGYUN 1C DEB", "group": "fengyun-1c-debris", "lat": 13.714442095097974, "lon": 142.7410648620457, "alt_km": 851.2391961301828, "timestamp": "2025-12-08T10:52:03.236052+00:00", "meta": {"OBJECT_NAME": "FENGYUN 1C DEB", "OBJECT_ID": "1999-025DXG", "EPOCH": "2025-11-25T16:33:32.008320", "MEAN_MOTION": 14.14714647, "ECCENTRICITY": 0.00629921, "INCLINATION": 98.56, "RA_OF_ASC_NODE": 308.3956, "ARG_OF_PERICENTER": 103.3746, "MEAN_ANOMALY": 257.4461, "EPHEMERIS_TYPE": 0, "CLASSIFICATION_TYPE": "U", "NORAD_CAT_ID": 36279, "ELEMENT_SET_NO": 999, "REV_AT_EPOCH": 88798, "BSTAR": 0.00016006279, "MEAN_MOTION_DOT": 2.73e-06, "MEAN_MOTION_DDOT": 0}, "tle": {"line1": "1 36279U 99025DXG 25329.68995380  .00000273  00000+0  16006-3 0  9998", "line2": "2 36279  98.5600 308.3956 0062992 103.3746 257.4461 14.14714647887981"}}, "geometry": {"type": "Point", "coordinates": [142.7410648620457, 13.714442095097974]}}]}